IRIDIUM 159             
1 43578U 18061K   23312.14502199  .00000791  00000+0  27523-3 0  9993
2 43578  86.3933  94.6058 0001972  90.2083 269.9339 14.34221239276922
IRIDIUM 180             
1 43922U 19002A   23312.77243969  .00000917  00000+0  32033-3 0  9990
2 43922  86.4014  31.2074 0002234  90.3973 269.7479 14.34215212252664
IRIDIUM 176             
1 43923U 19002B   23312.27121939  .00002750  00000+0  43210-3 0  9994
2 43923  86.6143  31.4492 0002307  92.4142 267.7339 14.72253939259196
IRIDIUM 168             
1 43924U 19002C   23312.76609689  .00000634  00000+0  21945-3 0  9992
2 43924  86.4017  31.2604 0002154  90.8244 269.3199 14.34216174252602
IRIDIUM 173             
1 43925U 19002D   23312.26502798  .00000744  00000+0  25869-3 0  9992
2 43925  86.4013  31.3975 0002033  91.0992 269.0437 14.34222186252512
IRIDIUM 169             
1 43926U 19002E   23312.38147109  .00000985  00000+0  31561-3 0  9990
2 43926  86.4234  62.9566 0001798 200.5649 159.5477 14.38620018253380
IRIDIUM 172             
1 43927U 19002F   23312.74706510  .00000507  00000+0  17395-3 0  9997
2 43927  86.4012  31.2012 0002094  91.2820 268.8616 14.34219427252591
IRIDIUM 175             
1 43928U 19002G   23312.60496688  .00002295  00000+0  36005-3 0  9990
2 43928  86.1554  16.9871 0002270  95.0503 265.0973 14.72245805259233
