<?xml version="1.0" encoding="UTF-8"?>
<ndm xmlns:xsi="http://www.w3.org/2001/XMLSchema-instance" xsi:noNamespaceSchemaLocation="https://sanaregistry.org/r/ndmxml_unqualified/ndmxml-2.0.0-master-2.0.xsd">
<omm id="CCSDS_OMM_VERS" version="2.0">
<header><CREATION_DATE/><ORIGINATOR/></header><body><segment><metadata><OBJECT_NAME>IRIDIUM 159</OBJECT_NAME><OBJECT_ID>2018-061K</OBJECT_ID><CENTER_NAME>EARTH</CENTER_NAME><REF_FRAME>TEME</REF_FRAME><TIME_SYSTEM>UTC</TIME_SYSTEM><MEAN_ELEMENT_THEORY>SGP4</MEAN_ELEMENT_THEORY></metadata><data><meanElements><EPOCH>2023-11-08T03:28:49.899936</EPOCH><MEAN_MOTION>14.34221239</MEAN_MOTION><ECCENTRICITY>.0001972</ECCENTRICITY><INCLINATION>86.3933</INCLINATION><RA_OF_ASC_NODE>94.6058</RA_OF_ASC_NODE><ARG_OF_PERICENTER>90.2083</ARG_OF_PERICENTER><MEAN_ANOMALY>269.9339</MEAN_ANOMALY></meanElements><tleParameters><EPHEMERIS_TYPE>0</EPHEMERIS_TYPE><CLASSIFICATION_TYPE>U</CLASSIFICATION_TYPE><NORAD_CAT_ID>43578</NORAD_CAT_ID><ELEMENT_SET_NO>999</ELEMENT_SET_NO><REV_AT_EPOCH>27692</REV_AT_EPOCH><BSTAR>.27523E-3</BSTAR><MEAN_MOTION_DOT>.791E-5</MEAN_MOTION_DOT><MEAN_MOTION_DDOT>0</MEAN_MOTION_DDOT></tleParameters></data></segment></body></omm>
<omm id="CCSDS_OMM_VERS" version="2.0">
<header><CREATION_DATE/><ORIGINATOR/></header><body><segment><metadata><OBJECT_NAME>IRIDIUM 180</OBJECT_NAME><OBJECT_ID>2019-002A</OBJECT_ID><CENTER_NAME>EARTH</CENTER_NAME><REF_FRAME>TEME</REF_FRAME><TIME_SYSTEM>UTC</TIME_SYSTEM><MEAN_ELEMENT_THEORY>SGP4</MEAN_ELEMENT_THEORY></metadata><data><meanElements><EPOCH>2023-11-08T18:32:18.789216</EPOCH><MEAN_MOTION>14.34215212</MEAN_MOTION><ECCENTRICITY>.0002234</ECCENTRICITY><INCLINATION>86.4014</INCLINATION><RA_OF_ASC_NODE>31.2074</RA_OF_ASC_NODE><ARG_OF_PERICENTER>90.3973</ARG_OF_PERICENTER><MEAN_ANOMALY>269.7479</MEAN_ANOMALY></meanElements><tleParameters><EPHEMERIS_TYPE>0</EPHEMERIS_TYPE><CLASSIFICATION_TYPE>U</CLASSIFICATION_TYPE><NORAD_CAT_ID>43922</NORAD_CAT_ID><ELEMENT_SET_NO>999</ELEMENT_SET_NO><REV_AT_EPOCH>25266</REV_AT_EPOCH><BSTAR>.32033E-3</BSTAR><MEAN_MOTION_DOT>.917E-5</MEAN_MOTION_DOT><MEAN_MOTION_DDOT>0</MEAN_MOTION_DDOT></tleParameters></data></segment></body></omm>
<omm id="CCSDS_OMM_VERS" version="2.0">
<header><CREATION_DATE/><ORIGINATOR/></header><body><segment><metadata><OBJECT_NAME>IRIDIUM 176</OBJECT_NAME><OBJECT_ID>2019-002B</OBJECT_ID><CENTER_NAME>EARTH</CENTER_NAME><REF_FRAME>TEME</REF_FRAME><TIME_SYSTEM>UTC</TIME_SYSTEM><MEAN_ELEMENT_THEORY>SGP4</MEAN_ELEMENT_THEORY></metadata><data><meanElements><EPOCH>2023-11-08T06:30:33.355296</EPOCH><MEAN_MOTION>14.72253939</MEAN_MOTION><ECCENTRICITY>.0002307</ECCENTRICITY><INCLINATION>86.6143</INCLINATION><RA_OF_ASC_NODE>31.4492</RA_OF_ASC_NODE><ARG_OF_PERICENTER>92.4142</ARG_OF_PERICENTER><MEAN_ANOMALY>267.7339</MEAN_ANOMALY></meanElements><tleParameters><EPHEMERIS_TYPE>0</EPHEMERIS_TYPE><CLASSIFICATION_TYPE>U</CLASSIFICATION_TYPE><NORAD_CAT_ID>43923</NORAD_CAT_ID><ELEMENT_SET_NO>999</ELEMENT_SET_NO><REV_AT_EPOCH>25919</REV_AT_EPOCH><BSTAR>.4321E-3</BSTAR><MEAN_MOTION_DOT>.275E-4</MEAN_MOTION_DOT><MEAN_MOTION_DDOT>0</MEAN_MOTION_DDOT></tleParameters></data></segment></body></omm>
<omm id="CCSDS_OMM_VERS" version="2.0">
<header><CREATION_DATE/><ORIGINATOR/></header><body><segment><metadata><OBJECT_NAME>IRIDIUM 168</OBJECT_NAME><OBJECT_ID>2019-002C</OBJECT_ID><CENTER_NAME>EARTH</CENTER_NAME><REF_FRAME>TEME</REF_FRAME><TIME_SYSTEM>UTC</TIME_SYSTEM><MEAN_ELEMENT_THEORY>SGP4</MEAN_ELEMENT_THEORY></metadata><data><meanElements><EPOCH>2023-11-08T18:23:10.771296</EPOCH><MEAN_MOTION>14.34216174</MEAN_MOTION><ECCENTRICITY>.0002154</ECCENTRICITY><INCLINATION>86.4017</INCLINATION><RA_OF_ASC_NODE>31.2604</RA_OF_ASC_NODE><ARG_OF_PERICENTER>90.8244</ARG_OF_PERICENTER><MEAN_ANOMALY>269.3199</MEAN_ANOMALY></meanElements><tleParameters><EPHEMERIS_TYPE>0</EPHEMERIS_TYPE><CLASSIFICATION_TYPE>U</CLASSIFICATION_TYPE><NORAD_CAT_ID>43924</NORAD_CAT_ID><ELEMENT_SET_NO>999</ELEMENT_SET_NO><REV_AT_EPOCH>25260</REV_AT_EPOCH><BSTAR>.21945E-3</BSTAR><MEAN_MOTION_DOT>.634E-5</MEAN_MOTION_DOT><MEAN_MOTION_DDOT>0</MEAN_MOTION_DDOT></tleParameters></data></segment></body></omm>
<omm id="CCSDS_OMM_VERS" version="2.0">
<header><CREATION_DATE/><ORIGINATOR/></header><body><segment><metadata><OBJECT_NAME>IRIDIUM 173</OBJECT_NAME><OBJECT_ID>2019-002D</OBJECT_ID><CENTER_NAME>EARTH</CENTER_NAME><REF_FRAME>TEME</REF_FRAME><TIME_SYSTEM>UTC</TIME_SYSTEM><MEAN_ELEMENT_THEORY>SGP4</MEAN_ELEMENT_THEORY></metadata><data><meanElements><EPOCH>2023-11-08T06:21:38.417472</EPOCH><MEAN_MOTION>14.34222186</MEAN_MOTION><ECCENTRICITY>.0002033</ECCENTRICITY><INCLINATION>86.4013</INCLINATION><RA_OF_ASC_NODE>31.3975</RA_OF_ASC_NODE><ARG_OF_PERICENTER>91.0992</ARG_OF_PERICENTER><MEAN_ANOMALY>269.0437</MEAN_ANOMALY></meanElements><tleParameters><EPHEMERIS_TYPE>0</EPHEMERIS_TYPE><CLASSIFICATION_TYPE>U</CLASSIFICATION_TYPE><NORAD_CAT_ID>43925</NORAD_CAT_ID><ELEMENT_SET_NO>999</ELEMENT_SET_NO><REV_AT_EPOCH>25251</REV_AT_EPOCH><BSTAR>.25869E-3</BSTAR><MEAN_MOTION_DOT>.744E-5</MEAN_MOTION_DOT><MEAN_MOTION_DDOT>0</MEAN_MOTION_DDOT></tleParameters></data></segment></body></omm>
<omm id="CCSDS_OMM_VERS" version="2.0">
<header><CREATION_DATE/><ORIGINATOR/></header><body><segment><metadata><OBJECT_NAME>IRIDIUM 169</OBJECT_NAME><OBJECT_ID>2019-002E</OBJECT_ID><CENTER_NAME>EARTH</CENTER_NAME><REF_FRAME>TEME</REF_FRAME><TIME_SYSTEM>UTC</TIME_SYSTEM><MEAN_ELEMENT_THEORY>SGP4</MEAN_ELEMENT_THEORY></metadata><data><meanElements><EPOCH>2023-11-08T09:09:19.102176</EPOCH><MEAN_MOTION>14.38620018</MEAN_MOTION><ECCENTRICITY>.0001798</ECCENTRICITY><INCLINATION>86.4234</INCLINATION><RA_OF_ASC_NODE>62.9566</RA_OF_ASC_NODE><ARG_OF_PERICENTER>200.5649</ARG_OF_PERICENTER><MEAN_ANOMALY>159.5477</MEAN_ANOMALY></meanElements><tleParameters><EPHEMERIS_TYPE>0</EPHEMERIS_TYPE><CLASSIFICATION_TYPE>U</CLASSIFICATION_TYPE><NORAD_CAT_ID>43926</NORAD_CAT_ID><ELEMENT_SET_NO>999</ELEMENT_SET_NO><REV_AT_EPOCH>25338</REV_AT_EPOCH><BSTAR>.31561E-3</BSTAR><MEAN_MOTION_DOT>.985E-5</MEAN_MOTION_DOT><MEAN_MOTION_DDOT>0</MEAN_MOTION_DDOT></tleParameters></data></segment></body></omm>
<omm id="CCSDS_OMM_VERS" version="2.0">
<header><CREATION_DATE/><ORIGINATOR/></header><body><segment><metadata><OBJECT_NAME>IRIDIUM 172</OBJECT_NAME><OBJECT_ID>2019-002F</OBJECT_ID><CENTER_NAME>EARTH</CENTER_NAME><REF_FRAME>TEME</REF_FRAME><TIME_SYSTEM>UTC</TIME_SYSTEM><MEAN_ELEMENT_THEORY>SGP4</MEAN_ELEMENT_THEORY></metadata><data><meanElements><EPOCH>2023-11-08T17:55:46.424640</EPOCH><MEAN_MOTION>14.34219427</MEAN_MOTION><ECCENTRICITY>.0002094</ECCENTRICITY><INCLINATION>86.4012</INCLINATION><RA_OF_ASC_NODE>31.2012</RA_OF_ASC_NODE><ARG_OF_PERICENTER>91.2820</ARG_OF_PERICENTER><MEAN_ANOMALY>268.8616</MEAN_ANOMALY></meanElements><tleParameters><EPHEMERIS_TYPE>0</EPHEMERIS_TYPE><CLASSIFICATION_TYPE>U</CLASSIFICATION_TYPE><NORAD_CAT_ID>43927</NORAD_CAT_ID><ELEMENT_SET_NO>999</ELEMENT_SET_NO><REV_AT_EPOCH>25259</REV_AT_EPOCH><BSTAR>.17395E-3</BSTAR><MEAN_MOTION_DOT>.507E-5</MEAN_MOTION_DOT><MEAN_MOTION_DDOT>0</MEAN_MOTION_DDOT></tleParameters></data></segment></body></omm>
<omm id="CCSDS_OMM_VERS" version="2.0">
<header><CREATION_DATE/><ORIGINATOR/></header><body><segment><metadata><OBJECT_NAME>IRIDIUM 175</OBJECT_NAME><OBJECT_ID>2019-002G</OBJECT_ID><CENTER_NAME>EARTH</CENTER_NAME><REF_FRAME>TEME</REF_FRAME><TIME_SYSTEM>UTC</TIME_SYSTEM><MEAN_ELEMENT_THEORY>SGP4</MEAN_ELEMENT_THEORY></metadata><data><meanElements><EPOCH>2023-11-08T14:31:09.138432</EPOCH><MEAN_MOTION>14.72245805</MEAN_MOTION><ECCENTRICITY>.000227</ECCENTRICITY><INCLINATION>86.1554</INCLINATION><RA_OF_ASC_NODE>16.9871</RA_OF_ASC_NODE><ARG_OF_PERICENTER>95.0503</ARG_OF_PERICENTER><MEAN_ANOMALY>265.0973</MEAN_ANOMALY></meanElements><tleParameters><EPHEMERIS_TYPE>0</EPHEMERIS_TYPE><CLASSIFICATION_TYPE>U</CLASSIFICATION_TYPE><NORAD_CAT_ID>43928</NORAD_CAT_ID><ELEMENT_SET_NO>999</ELEMENT_SET_NO><REV_AT_EPOCH>25923</REV_AT_EPOCH><BSTAR>.36005E-3</BSTAR><MEAN_MOTION_DOT>.2295E-4</MEAN_MOTION_DOT><MEAN_MOTION_DDOT>0</MEAN_MOTION_DDOT></tleParameters></data></segment></body></omm>

</ndm>
